CCSDS_OMM_VERS = 2.0
CREATION_DATE  = 
ORIGINATOR     = 

OBJECT_NAME    = SL-14 R/B
OBJECT_ID      = 1986-046B
CENTER_NAME    = EARTH
REF_FRAME      = TEME
TIME_SYSTEM    = UTC
MEAN_ELEMENT_THEORY = SGP/SGP4

EPOCH          = 2026-03-28T04:41:01.900896
MEAN_MOTION    = 14.85607984
ECCENTRICITY   = .0023495
INCLINATION    = 82.4801
RA_OF_ASC_NODE = 62.6917
ARG_OF_PERICENTER = 163.1261
MEAN_ANOMALY   = 197.0742

EPHEMERIS_TYPE = 0
CLASSIFICATION_TYPE = U
NORAD_CAT_ID   = 16792
ELEMENT_SET_NO = 999
REV_AT_EPOCH   = 12915
BSTAR          = .60958947E-4
MEAN_MOTION_DOT = .554E-5
MEAN_MOTION_DDOT = 0

CCSDS_OMM_VERS = 2.0
CREATION_DATE  = 
ORIGINATOR     = 

OBJECT_NAME    = SL-14 R/B
OBJECT_ID      = 1986-055B
CENTER_NAME    = EARTH
REF_FRAME      = TEME
TIME_SYSTEM    = UTC
MEAN_ELEMENT_THEORY = SGP/SGP4

EPOCH          = 2026-03-28T02:56:02.084640
MEAN_MOTION    = 14.85658391
ECCENTRICITY   = .00172995
INCLINATION    = 82.5171
RA_OF_ASC_NODE = 109.3446
ARG_OF_PERICENTER = 271.3374
MEAN_ANOMALY   = 147.5268

EPHEMERIS_TYPE = 0
CLASSIFICATION_TYPE = U
NORAD_CAT_ID   = 16882
ELEMENT_SET_NO = 999
REV_AT_EPOCH   = 12210
BSTAR          = .46342488E-4
MEAN_MOTION_DOT = .426E-5
MEAN_MOTION_DDOT = 0

CCSDS_OMM_VERS = 2.0
CREATION_DATE  = 
ORIGINATOR     = 

OBJECT_NAME    = AJISAI (EGS)
OBJECT_ID      = 1986-061A
CENTER_NAME    = EARTH
REF_FRAME      = TEME
TIME_SYSTEM    = UTC
MEAN_ELEMENT_THEORY = SGP/SGP4

EPOCH          = 2026-03-28T06:53:46.180320
MEAN_MOTION    = 12.44515650
ECCENTRICITY   = .0011328
INCLINATION    = 50.0111
RA_OF_ASC_NODE = 36.1585
ARG_OF_PERICENTER = 334.9749
MEAN_ANOMALY   = 188.2521

EPHEMERIS_TYPE = 0
CLASSIFICATION_TYPE = U
NORAD_CAT_ID   = 16908
ELEMENT_SET_NO = 999
REV_AT_EPOCH   = 47031
BSTAR          = .39726986E-4
MEAN_MOTION_DOT = -.92E-6
MEAN_MOTION_DDOT = 0

CCSDS_OMM_VERS = 2.0
CREATION_DATE  = 
ORIGINATOR     = 

OBJECT_NAME    = SL-14 R/B
OBJECT_ID      = 1987-024B
CENTER_NAME    = EARTH
REF_FRAME      = TEME
TIME_SYSTEM    = UTC
MEAN_ELEMENT_THEORY = SGP/SGP4

EPOCH          = 2026-03-27T22:51:35.532576
MEAN_MOTION    = 14.86149012
ECCENTRICITY   = .00177321
INCLINATION    = 82.5251
RA_OF_ASC_NODE = 75.5932
ARG_OF_PERICENTER = 195.4786
MEAN_ANOMALY   = 164.5891

EPHEMERIS_TYPE = 0
CLASSIFICATION_TYPE = U
NORAD_CAT_ID   = 17567
ELEMENT_SET_NO = 999
REV_AT_EPOCH   = 9084
BSTAR          = .53661276E-4
MEAN_MOTION_DOT = .496E-5
MEAN_MOTION_DDOT = 0

CCSDS_OMM_VERS = 2.0
CREATION_DATE  = 
ORIGINATOR     = 

OBJECT_NAME    = COSMOS 1833
OBJECT_ID      = 1987-027A
CENTER_NAME    = EARTH
REF_FRAME      = TEME
TIME_SYSTEM    = UTC
MEAN_ELEMENT_THEORY = SGP/SGP4

EPOCH          = 2026-03-27T23:34:44.969952
MEAN_MOTION    = 14.13047875
ECCENTRICITY   = .00233157
INCLINATION    = 70.9173
RA_OF_ASC_NODE = 287.5700
ARG_OF_PERICENTER = 187.6565
MEAN_ANOMALY   = 172.4204

EPHEMERIS_TYPE = 0
CLASSIFICATION_TYPE = U
NORAD_CAT_ID   = 17589
ELEMENT_SET_NO = 999
REV_AT_EPOCH   = 1290
BSTAR          = -.12226987E-3
MEAN_MOTION_DOT = -.277E-5
MEAN_MOTION_DDOT = 0

CCSDS_OMM_VERS = 2.0
CREATION_DATE  = 
ORIGINATOR     = 

OBJECT_NAME    = SL-16 R/B
OBJECT_ID      = 1987-027B
CENTER_NAME    = EARTH
REF_FRAME      = TEME
TIME_SYSTEM    = UTC
MEAN_ELEMENT_THEORY = SGP/SGP4

EPOCH          = 2026-03-28T06:08:37.834080
MEAN_MOTION    = 14.17165590
ECCENTRICITY   = .00028567
INCLINATION    = 71.0014
RA_OF_ASC_NODE = 237.3672
ARG_OF_PERICENTER = 97.2203
MEAN_ANOMALY   = 262.9245

EPHEMERIS_TYPE = 0
CLASSIFICATION_TYPE = U
NORAD_CAT_ID   = 17590
ELEMENT_SET_NO = 999
REV_AT_EPOCH   = 1797
BSTAR          = -.10325331E-4
MEAN_MOTION_DOT = -.69E-6
MEAN_MOTION_DDOT = 0

CCSDS_OMM_VERS = 2.0
CREATION_DATE  = 
ORIGINATOR     = 

OBJECT_NAME    = SL-14 R/B
OBJECT_ID      = 1987-038B
CENTER_NAME    = EARTH
REF_FRAME      = TEME
TIME_SYSTEM    = UTC
MEAN_ELEMENT_THEORY = SGP/SGP4

EPOCH          = 2026-03-27T21:20:51.063360
MEAN_MOTION    = 14.85385145
ECCENTRICITY   = .0020731
INCLINATION    = 82.4978
RA_OF_ASC_NODE = 279.6579
ARG_OF_PERICENTER = 103.5342
MEAN_ANOMALY   = 256.8185

EPHEMERIS_TYPE = 0
CLASSIFICATION_TYPE = U
NORAD_CAT_ID   = 17912
ELEMENT_SET_NO = 999
REV_AT_EPOCH   = 8193
BSTAR          = .52733E-4
MEAN_MOTION_DOT = .48E-5
MEAN_MOTION_DDOT = 0

CCSDS_OMM_VERS = 2.0
CREATION_DATE  = 
ORIGINATOR     = 

OBJECT_NAME    = COSMOS 1844
OBJECT_ID      = 1987-041A
CENTER_NAME    = EARTH
REF_FRAME      = TEME
TIME_SYSTEM    = UTC
MEAN_ELEMENT_THEORY = SGP/SGP4

EPOCH          = 2026-03-28T03:21:02.007648
MEAN_MOTION    = 14.14556004
ECCENTRICITY   = .00309951
INCLINATION    = 70.9014
RA_OF_ASC_NODE = 355.2615
ARG_OF_PERICENTER = 350.9526
MEAN_ANOMALY   = 9.1033

EPHEMERIS_TYPE = 0
CLASSIFICATION_TYPE = U
NORAD_CAT_ID   = 17973
ELEMENT_SET_NO = 999
REV_AT_EPOCH   = 619
BSTAR          = .21457987E-3
MEAN_MOTION_DOT = .366E-5
MEAN_MOTION_DDOT = 0

CCSDS_OMM_VERS = 2.0
CREATION_DATE  = 
ORIGINATOR     = 

OBJECT_NAME    = SL-14 R/B
OBJECT_ID      = 1987-055B
CENTER_NAME    = EARTH
REF_FRAME      = TEME
TIME_SYSTEM    = UTC
MEAN_ELEMENT_THEORY = SGP/SGP4

EPOCH          = 2026-03-28T03:10:51.357504
MEAN_MOTION    = 14.85647373
ECCENTRICITY   = .00195675
INCLINATION    = 82.5008
RA_OF_ASC_NODE = 331.6523
ARG_OF_PERICENTER = 315.9040
MEAN_ANOMALY   = 44.0615

EPHEMERIS_TYPE = 0
CLASSIFICATION_TYPE = U
NORAD_CAT_ID   = 18153
ELEMENT_SET_NO = 999
REV_AT_EPOCH   = 7267
BSTAR          = .44588915E-4
MEAN_MOTION_DOT = .411E-5
MEAN_MOTION_DDOT = 0

CCSDS_OMM_VERS = 2.0
CREATION_DATE  = 
ORIGINATOR     = 

OBJECT_NAME    = COSMOS 1867
OBJECT_ID      = 1987-060A
CENTER_NAME    = EARTH
REF_FRAME      = TEME
TIME_SYSTEM    = UTC
MEAN_ELEMENT_THEORY = SGP/SGP4

EPOCH          = 2026-03-28T03:56:22.402752
MEAN_MOTION    = 14.31505833
ECCENTRICITY   = .00148036
INCLINATION    = 65.0092
RA_OF_ASC_NODE = 254.9648
ARG_OF_PERICENTER = 279.7329
MEAN_ANOMALY   = 80.2083

EPHEMERIS_TYPE = 0
CLASSIFICATION_TYPE = U
NORAD_CAT_ID   = 18187
ELEMENT_SET_NO = 999
REV_AT_EPOCH   = 2258
BSTAR          = .3686416E-4
MEAN_MOTION_DOT = -.2E-7
MEAN_MOTION_DDOT = 0

CCSDS_OMM_VERS = 2.0
CREATION_DATE  = 
ORIGINATOR     = 

OBJECT_NAME    = SL-14 R/B
OBJECT_ID      = 1988-001B
CENTER_NAME    = EARTH
REF_FRAME      = TEME
TIME_SYSTEM    = UTC
MEAN_ELEMENT_THEORY = SGP/SGP4

EPOCH          = 2026-03-28T06:20:00.229056
MEAN_MOTION    = 14.85547995
ECCENTRICITY   = .0018288
INCLINATION    = 82.5162
RA_OF_ASC_NODE = 177.8962
ARG_OF_PERICENTER = 172.2874
MEAN_ANOMALY   = 187.8627

EPHEMERIS_TYPE = 0
CLASSIFICATION_TYPE = U
NORAD_CAT_ID   = 18749
ELEMENT_SET_NO = 999
REV_AT_EPOCH   = 4478
BSTAR          = .57336344E-4
MEAN_MOTION_DOT = .521E-5
MEAN_MOTION_DDOT = 0

CCSDS_OMM_VERS = 2.0
CREATION_DATE  = 
ORIGINATOR     = 

OBJECT_NAME    = COSMOS 1933
OBJECT_ID      = 1988-020A
CENTER_NAME    = EARTH
REF_FRAME      = TEME
TIME_SYSTEM    = UTC
MEAN_ELEMENT_THEORY = SGP/SGP4

EPOCH          = 2026-03-27T22:00:09.971712
MEAN_MOTION    = 15.18151155
ECCENTRICITY   = .0005137
INCLINATION    = 82.5122
RA_OF_ASC_NODE = 232.8735
ARG_OF_PERICENTER = 127.5935
MEAN_ANOMALY   = 232.5766

EPHEMERIS_TYPE = 0
CLASSIFICATION_TYPE = U
NORAD_CAT_ID   = 18958
ELEMENT_SET_NO = 999
REV_AT_EPOCH   = 5299
BSTAR          = .20675E-3
MEAN_MOTION_DOT = .4252E-4
MEAN_MOTION_DDOT = 0

